NORAD_CAT_ID,OBJECT_NAME,OBJECT_TYPE,EPOCH,MEAN_MOTION,ECCENTRICITY,INCLINATION,RA_OF_ASC_NODE,ARG_OF_PERICENTER,MEAN_ANOMALY,BSTAR,MEAN_MOTION_DOT,MEAN_MOTION_DDOT,TLE_LINE0,TLE_LINE1,TLE_LINE2,SEMIMAJOR_AXIS,PERIOD,APOGEE,PERIGEE,DECAYED
49179.0,STARLINK-3043,PAYLOAD,2022-01-15 22:00:01,15.69760516,0.0003525,69.9998,138.8175,289.995,18.047,-0.00054529,-0.00064839,0.0,0 STARLINK-3043,1 49179U 21082BB  22015.91668981 -.00064839  00000-0 -54529-3 0  9991,2 49179  69.9998 138.8175 0003525 289.9950  18.0470 15.69760516 19536,6737.719,91.734,361.959,357.209,0.0
49179.0,STARLINK-3043,PAYLOAD,2022-01-16 14:00:01,15.69701991,0.0003439,70.0,136.944,290.7176,183.4825,0.00028648,0.00034059,0.0,0 STARLINK-3043,1 49179U 21082BB  22016.58334491  .00034059  00000-0  28648-3 0  9993,2 49179  70.0000 136.9440 0003439 290.7176 183.4825 15.69701991 19635,6737.887,91.737,362.069,357.435,0.0
49179.0,STARLINK-3043,PAYLOAD,2022-01-16 22:00:00,15.69751007,0.0003466,69.9998,136.007,292.2059,265.0513,-0.00033138,-0.00039589,0.0,0 STARLINK-3043,1 49179U 21082BB  22016.91667824 -.00039589  00000-0 -33138-3 0  9994,2 49179  69.9998 136.0070 0003466 292.2059 265.0513 15.69751007  3687,6737.746,91.734,361.947,357.276,0.0
49179.0,STARLINK-3043,PAYLOAD,2022-01-17 06:00:00,15.69704446,0.0003505,70.0002,135.0701,286.1159,354.2674,0.00027169,0.00032287,0.0,0 STARLINK-3043,1 49179U 21082BB  22017.25001157  .00032287  00000-0  27169-3 0  9996,2 49179  70.0002 135.0701 0003505 286.1159 354.2674 15.69704446 19741,6737.88,91.737,362.106,357.3830000000001,0.0
49179.0,STARLINK-3043,PAYLOAD,2022-01-17 14:00:01,15.69715561,0.0003707,70.0007,134.1333,290.163,73.307,0.00022267,0.00026417,0.0,0 STARLINK-3043,1 49179U 21082BB  22017.58334491  .00026417  00000-0  22267-3 0  9994,2 49179  70.0007 134.1333 0003707 290.1630  73.3070 15.69715561  3708,6737.848000000001,91.736,362.211,357.215,0.0
49179.0,STARLINK-3043,PAYLOAD,2022-01-17 22:00:00,15.69760312,0.0003716,70.0003,133.1964,291.44,155.1139,-0.00018978,-0.00022818,0.0,0 STARLINK-3043,1 49179U 21082BB  22017.91667824 -.00022818  00000-0 -18978-3 0  9997,2 49179  70.0003 133.1964 0003716 291.4400 155.1139 15.69760312  3688,6737.72,91.734,362.089,357.081,0.0
49179.0,STARLINK-3043,PAYLOAD,2022-01-18 06:00:00,15.69735743,0.0003613,70.0005,132.2598,286.0243,243.655,0.00065742,0.00078969,0.0,0 STARLINK-3043,1 49179U 21082BB  22018.25001157  .00078969  00000-0  65742-3 0  9993,2 49179  70.0005 132.2598 0003613 286.0243 243.6550 15.69735743 19894,6737.79,91.735,362.089,357.221,0.0
49179.0,STARLINK-3043,PAYLOAD,2022-01-18 14:00:01,15.69782483,0.0003824,70.0004,131.3229,291.0368,321.7969,0.00010124,0.00011908,0.0,0 STARLINK-3043,1 49179U 21082BB  22018.58334491  .00011908  00000-0  10124-3 0  9993,2 49179  70.0004 131.3229 0003824 291.0368 321.7969 15.69782483  3676,6737.656,91.732,362.098,356.945,0.0
49179.0,STARLINK-3043,PAYLOAD,2022-01-18 22:00:00,15.6980521,0.0003934,70.0001,130.3857,291.0459,44.9649,-0.0006553999999999,-0.0007792,0.0,0 STARLINK-3043,1 49179U 21082BB  22018.91667824 -.00077920  00000-0 -65540-3 0  9999,2 49179  70.0001 130.3857 0003934 291.0459  44.9649 15.69805210 20001,6737.590999999999,91.731,362.107,356.806,0.0
49179.0,STARLINK-3043,PAYLOAD,2022-01-19 06:00:02,15.69781807,0.0003835,70.0004,129.4487,286.8576,132.3779,-6.227899999999999e-05,-7.651e-05,0.0,0 STARLINK-3043,1 49179U 21082BB  22019.25002315 -.00007651  00000-0 -62279-4 0  9996,2 49179  70.0004 129.4487 0003835 286.8576 132.3779 15.69781807 20050,6737.658,91.732,362.107,356.939,0.0
49179.0,STARLINK-3043,PAYLOAD,2022-01-19 14:00:01,15.69734962,0.0003887,70.0006,128.5117,291.7592,210.5887,0.00039214,0.00046838,0.0,0 STARLINK-3043,1 49179U 21082BB  22019.58334491  .00046838  00000-0  39214-3 0  9995,2 49179  70.0006 128.5117 0003887 291.7592 210.5887 15.69734962  3681,6737.792,91.735,362.276,357.038,0.0
49179.0,STARLINK-3043,PAYLOAD,2022-01-19 22:00:00,15.69825276,0.0003873,70.0003,127.5749,291.8646,293.6019,-0.0009372,-0.00110988,0.0,0 STARLINK-3043,1 49179U 21082BB  22019.91667824 -.00110988  00000-0 -93720-3 0  9993,2 49179  70.0003 127.5749 0003873 291.8646 293.6019 15.69825276  3671,6737.534000000002,91.73,362.008,356.789,0.0
49179.0,STARLINK-3043,PAYLOAD,2022-01-20 06:00:00,15.69723428,0.0003995,70.0005,126.6382,286.6555,21.9633,0.00028108,0.00033444,0.0,0 STARLINK-3043,1 49179U 21082BB  22020.25001157  .00033444  00000-0  28108-3 0  9990,2 49179  70.0005 126.6382 0003995 286.6555  21.9633 15.69723428 20211,6737.825,91.736,362.382,356.999,0.0
49179.0,STARLINK-3043,PAYLOAD,2022-01-20 14:00:01,15.6971321,0.0004266,70.0002,125.7012,290.3318,101.4117,-0.00017975,-0.00021588,0.0,0 STARLINK-3043,1 49179U 21082BB  22020.58334491 -.00021588  00000-0 -17975-3 0  9994,2 49179  70.0002 125.7012 0004266 290.3318 101.4117 15.69713210 20263,6737.855,91.737,362.594,356.845,0.0
49179.0,STARLINK-3043,PAYLOAD,2022-01-20 22:00:00,15.69724569,0.0004343,69.9998,124.7641,290.3608,184.446,-0.00024629,-0.00029488,0.0,0 STARLINK-3043,1 49179U 21082BB  22020.91667824 -.00029488  00000-0 -24629-3 0  9991,2 49179  69.9998 124.7641 0004343 290.3608 184.4460 15.69724569  3676,6737.821999999999,91.736,362.61300000000006,356.761,0.0
49179.0,STARLINK-3043,PAYLOAD,2022-01-21 08:00:01,15.69738802,0.0004312,70.0003,123.5928,285.9496,22.6957,-8.8995e-06,-1.275e-05,0.0,0 STARLINK-3043,1 49179U 21082BB  22021.33334491 -.00001275  00000-0 -88995-5 0  9991,2 49179  70.0003 123.5928 0004312 285.9496  22.6957 15.69738802 20388,6737.781,91.735,362.552,356.741,0.0
49179.0,STARLINK-3043,PAYLOAD,2022-01-21 14:00:01,15.69719829,0.000438,70.0002,122.8901,290.433,350.5539,0.00033758,0.00040239,0.0,0 STARLINK-3043,1 49179U 21082BB  22021.58334491  .00040239  00000-0  33758-3 0  9994,2 49179  70.0002 122.8901 0004380 290.4330 350.5539 15.69719829  3695,6737.8359999999975,91.736,362.652,356.749,0.0
49179.0,STARLINK-3043,PAYLOAD,2022-01-21 22:00:00,15.69772826,0.0004313,69.9998,121.9531,290.0755,74.0222,-0.00026533,-0.00031805,0.0,0 STARLINK-3043,1 49179U 21082BB  22021.91667824 -.00031805  00000-0 -26533-3 0  9994,2 49179  69.9998 121.9531 0004313 290.0755  74.0222 15.69772826  3680,6737.684,91.733,362.455,356.64300000000014,0.0
49179.0,STARLINK-3043,PAYLOAD,2022-01-22 06:00:00,15.69765985,0.0004181,70.0001,121.0163,286.5935,160.6469,0.00040035,0.00047894,0.0,0 STARLINK-3043,1 49179U 21082BB  22022.25001157  .00047894  00000-0  40035-3 0  9999,2 49179  70.0001 121.0163 0004181 286.5935 160.6469 15.69765985 20528,6737.704000000002,91.733,362.386,356.75199999999984,0.0
49179.0,STARLINK-3043,PAYLOAD,2022-01-22 14:00:01,15.69804253,0.0004275,69.9996,120.0794,292.1966,238.2268,-0.00051251,-0.00061103,0.0,0 STARLINK-3043,1 49179U 21082BB  22022.58334491 -.00061103  00000-0 -51251-3 0  9998,2 49179  69.9996 120.0794 0004275 292.1966 238.2268 15.69804253  3676,6737.594,91.731,362.339,356.579,0.0
49179.0,STARLINK-3043,PAYLOAD,2022-01-22 22:00:00,15.69775782,0.0004113,69.9992,119.1421,292.009,321.5794,-0.0002113,-0.00025392,0.0,0 STARLINK-3043,1 49179U 21082BB  22022.91667824 -.00025392  00000-0 -21130-3 0  9997,2 49179  69.9992 119.1421 0004113 292.0090 321.5794 15.69775782 20635,6737.676,91.733,362.312,356.769,0.0
49179.0,STARLINK-3043,PAYLOAD,2022-01-23 14:00:01,15.69734767,0.0004033,69.9996,117.2679,293.869,126.0136,4.5832e-05,5.260000000000001e-05,0.0,0 STARLINK-3043,1 49179U 21082BB  22023.58334491  .00005260  00000-0  45832-4 0  9998,2 49179  69.9996 117.2679 0004033 293.8690 126.0136 15.69734767  3681,6737.793000000002,91.735,362.375,356.941,0.0
49179.0,STARLINK-3043,PAYLOAD,2022-01-23 22:00:00,15.69734575,0.0004106,69.9992,116.3309,292.2797,210.717,-0.00062128,-0.000737,0.0,0 STARLINK-3043,1 49179U 21082BB  22023.91667824 -.00073700  00000-0 -62128-3 0  9996,2 49179  69.9992 116.3309 0004106 292.2797 210.7170 15.69734575  3685,6737.793000000002,91.735,362.425,356.892,0.0
49179.0,STARLINK-3043,PAYLOAD,2022-01-24 06:00:02,15.69707896,0.000406,69.9995,115.3942,288.0965,298.0370000000001,0.00033131,0.00039462,0.0,0 STARLINK-3043,1 49179U 21082BB  22024.25002315  .00039462  00000-0  33131-3 0  9999,2 49179  69.9995 115.3942 0004060 288.0965 298.0370 15.69707896 20843,6737.87,91.737,362.47,356.999,0.0
49179.0,STARLINK-3043,PAYLOAD,2022-01-24 14:00:01,15.69705634,0.0004236,69.9993,114.4573,293.4883,15.6709,0.00037514,0.00044736,0.0,0 STARLINK-3043,1 49179U 21082BB  22024.58334491  .00044736  00000-0  37514-3 0  9997,2 49179  69.9993 114.4573 0004236 293.4883  15.6709 15.69705634  3685,6737.876,91.737,362.595,356.88699999999994,0.0
49179.0,STARLINK-3043,PAYLOAD,2022-01-24 22:00:00,15.697457,0.000422,69.9989,113.5202,291.5058,100.7402,-0.00016378,-0.00019719,0.0,0 STARLINK-3043,1 49179U 21082BB  22024.91667824 -.00019719  00000-0 -16378-3 0  9993,2 49179  69.9989 113.5202 0004220 291.5058 100.7402 15.69745700 20947,6737.762,91.735,362.47,356.783,0.0
49179.0,STARLINK-3043,PAYLOAD,2022-01-25 14:00:01,15.69747639,0.0004409,70.0,111.652,295.3914,262.9772,-8.9028e-06,-1.276e-05,0.0,0 STARLINK-3043,1 49179U 21082BB  22025.58334491 -.00001276  00000-0 -89028-5 0  9991,2 49179  70.0000 111.6520 0004409 295.3914 262.9772 15.69747639 21055,6737.755999999999,91.734,362.592,356.65,0.0
49179.0,STARLINK-3043,PAYLOAD,2022-01-25 22:00:00,15.69833844,0.0004065,69.9991,110.7092,292.6806,348.9835,-0.00097088,-0.00114962,0.0,0 STARLINK-3043,1 49179U 21082BB  22025.91667824 -.00114962  00000-0 -97088-3 0  9997,2 49179  69.9991 110.7092 0004065 292.6806 348.9835 15.69833844 21108,6737.509,91.729,362.11300000000006,356.636,0.0
49179.0,STARLINK-3043,PAYLOAD,2022-01-26 06:00:00,15.69787391,0.0003858,69.9996,109.7724,291.0297,73.8132,-0.00018324,-0.00022066,0.0,0 STARLINK-3043,1 49179U 21082BB  22026.25001157 -.00022066  00000-0 -18324-3 0  9995,2 49179  69.9996 109.7724 0003858 291.0297  73.8132 15.69787391 21153,6737.642,91.732,362.107,356.908,0.0
